GLOBALSTAR M035         
1 25851U 99037A   25050.93224885 -.00000021  00000+0  16098-2 0  9991
2 25851  51.9979 316.4597 0013760 148.7461 296.5364 11.04536523 83305
GLOBALSTAR M032         
1 25852U 99037B   25050.51426133  .00000039  00000+0  33885-2 0  9997
2 25852  51.9944 150.7025 0010505 331.5295  28.4930 11.19058387121615
GLOBALSTAR M051         
1 25853U 99037C   25050.96276625 -.00000036  00000+0  88769-3 0  9996
2 25853  51.9827 323.6858 0001319  23.1924 336.8946 11.42202943118992
GLOBALSTAR M030         
1 25854U 99037D   25050.91593447 -.00000126  00000+0 -10726-2 0  9994
2 25854  51.9870 137.3568 0004079 191.6164 168.4559 11.55101534136494
GLOBALSTAR M048         
1 25872U 99041A   25050.97657087 -.00000054  00000+0  42403-3 0  9993
2 25872  51.9339 254.1541 0013003 346.8430 161.9727 11.33854749111688
GLOBALSTAR M026         
1 25873U 99041B   25050.77275860 -.00000099  00000+0 -12825-2 0  9991
2 25873  52.0009  76.0044 0001654  74.7791  96.4476 11.06828192135480
GLOBALSTAR M043         
1 25874U 99041C   25050.63810218 -.00000076  00000+0 -24408-3 0  9995
2 25874  51.9442 357.9151 0013476 111.2392  59.8776 11.25689371109638
GLOBALSTAR M028         
1 25875U 99041D   25050.82415462 -.00000044  00000+0  36504-3 0  9993
2 25875  51.9613 183.0186 0063694 175.8738 184.2660 12.50577566175495
